NORAD_CAT_ID,OBJECT_NAME,OBJECT_TYPE,EPOCH,MEAN_MOTION,ECCENTRICITY,INCLINATION,RA_OF_ASC_NODE,ARG_OF_PERICENTER,MEAN_ANOMALY,BSTAR,MEAN_MOTION_DOT,MEAN_MOTION_DDOT,TLE_LINE0,TLE_LINE1,TLE_LINE2,SEMIMAJOR_AXIS,PERIOD,APOGEE,PERIGEE,DECAYED
52650.0,STARLINK-3891,PAYLOAD,2022-07-17 20:00:01,15.7287917,0.0002277,53.2153,122.8567,17.6315,311.1021,-0.00049798,-0.00069,0.0,0 STARLINK-3891,1 52650U 22052BE  22198.83334491 -.00069000  00000-0 -49798-3 0  9993,2 52650  53.2153 122.8567 0002277  17.6315 311.1021 15.72879170 10457,6728.81,91.552,352.207,349.14300000000014,0.0
52650.0,STARLINK-3891,PAYLOAD,2022-07-17 22:00:00,15.7297443,0.0002378,53.2159,122.4448,17.9258,62.9165,-0.0025093,-0.00335908,0.0,0 STARLINK-3891,1 52650U 22052BE  22198.91667824 -.00335908  00000-0 -25093-2 0  9995,2 52650  53.2159 122.4448 0002378  17.9258  62.9165 15.72974430  1307,6728.538000000001,91.546,352.00300000000016,348.80300000000005,0.0
52650.0,STARLINK-3891,PAYLOAD,2022-07-18 04:00:00,15.7285268,0.0002595,53.2147,121.2118,17.0121,40.2373,0.0015207,0.00215148,0.0,0 STARLINK-3891,1 52650U 22052BE  22199.16667824  .00215148  00000-0  15207-2 0  9990,2 52650  53.2147 121.2118 0002595  17.0121  40.2373 15.72852680 10511,6728.886,91.553,352.497,349.004,0.0
52650.0,STARLINK-3891,PAYLOAD,2022-07-18 12:00:00,15.73006267,0.000243,53.2143,119.5616,18.3006,127.5571,0.00052626,0.00073277,0.0,0 STARLINK-3891,1 52650U 22052BE  22199.50001157  .00073277  00000-0  52626-3 0  9991,2 52650  53.2143 119.5616 0002430  18.3006 127.5571 15.73006267 10561,6728.448,91.544,351.9480000000001,348.67800000000005,0.0
52650.0,STARLINK-3891,PAYLOAD,2022-07-18 14:00:01,15.72978257,0.0002409,53.2143,119.1489,20.7093,237.3369,0.0012710999999999,0.00179935,0.0,0 STARLINK-3891,1 52650U 22052BE  22199.58334491  .00179935  00000-0  12711-2 0  9997,2 52650  53.2143 119.1489 0002409  20.7093 237.3369 15.72978257  1307,6728.526999999999,91.546,352.01300000000015,348.772,0.0
52650.0,STARLINK-3891,PAYLOAD,2022-07-18 20:00:01,15.73104648,0.0002368,53.2146,117.9121,25.54300000000001,209.029,0.00060322,0.00084553,0.0,0 STARLINK-3891,1 52650U 22052BE  22199.83334491  .00084553  00000-0  60322-3 0  9998,2 52650  53.2146 117.9121 0002368  25.5430 209.0290 15.73104648 10610,6728.167,91.539,351.625,348.439,0.0
52650.0,STARLINK-3891,PAYLOAD,2022-07-18 22:00:00,15.73152117,0.0002476,53.2145,117.5003,26.0283,320.7434,0.00012972,0.00017587,0.0,0 STARLINK-3891,1 52650U 22052BE  22199.91667824  .00017587  00000-0  12972-3 0  9997,2 52650  53.2145 117.5003 0002476  26.0283 320.7434 15.73152117  1307,6728.031999999997,91.536,351.56300000000016,348.231,0.0
52650.0,STARLINK-3891,PAYLOAD,2022-07-19 14:00:01,15.73194743,0.0002386,53.2143,114.2005,24.3802,140.1887,0.00048646,0.00068197,0.0,0 STARLINK-3891,1 52650U 22052BE  22200.58334491  .00068197  00000-0  48646-3 0  9994,2 52650  53.2143 114.2005 0002386  24.3802 140.1887 15.73194743  1306,6727.91,91.533,351.38,348.17,0.0
52650.0,STARLINK-3891,PAYLOAD,2022-07-19 22:00:00,15.73255113,0.0002336,53.2155,112.5495,24.0014,229.5203,-0.00057999,-0.00081439,0.0,0 STARLINK-3891,1 52650U 22052BE  22200.91667824 -.00081439  00000-0 -57999-3 0  9997,2 52650  53.2155 112.5495 0002336  24.0014 229.5203 15.73255113  1303,6727.738,91.53,351.175,348.031,0.0
52650.0,STARLINK-3891,PAYLOAD,2022-07-20 12:00:00,15.73238674,0.0002238,53.2138,109.664,17.1773,302.1427,0.00015059,0.00020601,0.0,0 STARLINK-3891,1 52650U 22052BE  22201.50001157  .00020601  00000-0  15059-3 0  9997,2 52650  53.2138 109.6640 0002238  17.1773 302.1427 15.73238674 10870,6727.785,91.531,351.156,348.144,0.0
52650.0,STARLINK-3891,PAYLOAD,2022-07-20 14:00:01,15.73241986,0.0002184,53.2138,109.2512,17.5118,54.0539,0.00011922,0.00016174,0.0,0 STARLINK-3891,1 52650U 22052BE  22201.58334491  .00016174  00000-0  11922-3 0  9990,2 52650  53.2138 109.2512 0002184  17.5118  54.0539 15.73241986  1306,6727.775,91.531,351.11,348.171,0.0
52650.0,STARLINK-3891,PAYLOAD,2022-07-20 22:00:01,15.73260694,0.0002369,53.214,107.6025,23.7235,136.8855,-0.001049,-0.00145724,0.0,0 STARLINK-3891,1 52650U 22052BE  22201.91668981 -.00145724  00000-0 -10490-2 0  9995,2 52650  53.2140 107.6025 0002369  23.7235 136.8855 15.73260694 10941,6727.722,91.53,351.181,347.99300000000005,0.0
52650.0,STARLINK-3891,PAYLOAD,2022-07-21 06:00:00,15.73148441,0.0002453,53.2143,105.9531,14.9931,234.4324,0.00049779,0.00069674,0.0,0 STARLINK-3891,1 52650U 22052BE  22202.25001157  .00069674  00000-0  49779-3 0  9999,2 52650  53.2143 105.9531 0002453  14.9931 234.4324 15.73148441 10992,6728.042,91.536,351.55800000000005,348.25699999999995,0.0
52650.0,STARLINK-3891,PAYLOAD,2022-07-21 14:00:01,15.73185287,0.0002249,53.2141,104.3024,18.3821,320.0173,0.00031558,0.00043876,0.0,0 STARLINK-3891,1 52650U 22052BE  22202.58335648  .00043876  00000-0  31558-3 0  9992,2 52650  53.2141 104.3024 0002249  18.3821 320.0173 15.73185287  1307,6727.937,91.534,351.315,348.289,0.0
52650.0,STARLINK-3891,PAYLOAD,2022-07-21 20:00:01,15.73230772,0.0002311999999999,53.2143,103.066,22.5083,292.5174,-0.00047488,-0.00066837,0.0,0 STARLINK-3891,1 52650U 22052BE  22202.83334491 -.00066837  00000-0 -47488-3 0  9998,2 52650  53.2143 103.0660 0002312  22.5083 292.5174 15.73230772 11089,6727.807,91.531,351.228,348.117,0.0
52650.0,STARLINK-3891,PAYLOAD,2022-07-21 22:00:00,15.73199419,0.0002394,53.2141,102.6543,22.0686,45.2023,-0.00013548,-0.00019593,0.0,0 STARLINK-3891,1 52650U 22052BE  22202.91667824 -.00019593  00000-0 -13548-3 0  9993,2 52650  53.2141 102.6543 0002394  22.0686  45.2023 15.73199419  1308,6727.897,91.533,351.372,348.151,0.0
52650.0,STARLINK-3891,PAYLOAD,2022-07-22 04:00:00,15.73195966,0.0002511,53.2138,101.418,20.465,23.5055,0.00023637,0.00032678,0.0,0 STARLINK-3891,1 52650U 22052BE  22203.16667824  .00032678  00000-0  23637-3 0  9998,2 52650  53.2138 101.4180 0002511  20.4650  23.5055 15.73195966 11142,6727.906999999997,91.533,351.461,348.082,0.0
52650.0,STARLINK-3891,PAYLOAD,2022-07-22 06:00:00,15.73230244,0.0002460999999999,53.2135,101.0053,19.6595,136.5358,-0.00027467,-0.00039047,0.0,0 STARLINK-3891,1 52650U 22052BE  22203.25001157 -.00039047  00000-0 -27467-3 0  9993,2 52650  53.2135 101.0053 0002461  19.6595 136.5358 15.73230244  1303,6727.809,91.531,351.33,348.01800000000014,0.0
52650.0,STARLINK-3891,PAYLOAD,2022-07-22 20:00:01,15.73256002,0.0002133,53.2142,98.1174,18.5059,203.3339,-0.00013698,-0.00019849,0.0,0 STARLINK-3891,1 52650U 22052BE  22203.83334491 -.00019849  00000-0 -13698-3 0  9996,2 52650  53.2142  98.1174 0002133  18.5059 203.3339 15.73256002 11246,6727.736,91.53,351.036,348.165,0.0
52650.0,STARLINK-3891,PAYLOAD,2022-07-22 22:00:00,15.73276163,0.0002234999999999,53.2141,97.7055,16.6948,317.3864,-0.00052275,-0.00073595,0.0,0 STARLINK-3891,1 52650U 22052BE  22203.91667824 -.00073595  00000-0 -52275-3 0  9996,2 52650  53.2141  97.7055 0002235  16.6948 317.3864 15.73276163  1302,6727.678000000001,91.529,351.047,348.039,0.0
52650.0,STARLINK-3891,PAYLOAD,2022-07-23 14:00:01,15.73114148,0.0002255999999999,53.2142,94.405,23.2973,128.7172,0.00018785,0.00025729,0.0,0 STARLINK-3891,1 52650U 22052BE  22204.58335648  .00025729  00000-0  18785-3 0  9998,2 52650  53.2142  94.4050 0002256  23.2973 128.7172 15.73114148  1307,6728.14,91.538,351.523,348.487,0.0
52650.0,STARLINK-3891,PAYLOAD,2022-07-23 22:00:00,15.73136014,0.0002469,53.2141,92.7575,25.645,215.1398,0.00011674,0.0001575,0.0,0 STARLINK-3891,1 52650U 22052BE  22204.91667824  .00015750  00000-0  11674-3 0  9992,2 52650  53.2141  92.7575 0002469  25.6450 215.1398 15.73136014  1308,6728.078,91.537,351.60400000000016,348.281,0.0
52650.0,STARLINK-3891,PAYLOAD,2022-07-24 14:00:01,15.73198992,0.0002283,53.2138,89.4568,29.3786,29.2026,1.3514e-05,1.275e-05,0.0,0 STARLINK-3891,1 52650U 22052BE  22205.58334491  .00001275  00000-0  13514-4 0  9990,2 52650  53.2138  89.4568 0002283  29.3786  29.2026 15.73198992  1301,6727.898,91.533,351.2990000000001,348.227,0.0
52650.0,STARLINK-3891,PAYLOAD,2022-07-24 22:00:00,15.73180114,0.0002528999999999,53.214,87.8091,31.2781,116.2294,2.4062e-05,2.754e-05,0.0,0 STARLINK-3891,1 52650U 22052BE  22205.91667824  .00002754  00000-0  24062-4 0  9999,2 52650  53.2140  87.8091 0002529  31.2781 116.2294 15.73180114  1308,6727.9519999999975,91.534,351.51800000000014,348.115,0.0
52650.0,STARLINK-3891,PAYLOAD,2022-07-25 04:00:01,15.73165706,0.0002611,53.2142,86.5726,29.3417,94.9073,0.00049775,0.00069721,0.0,0 STARLINK-3891,1 52650U 22052BE  22206.16668981  .00069721  00000-0  49775-3 0  9996,2 52650  53.2142  86.5726 0002611  29.3417  94.9073 15.73165706 11619,6727.993,91.535,351.615,348.101,0.0
52650.0,STARLINK-3891,PAYLOAD,2022-07-25 12:00:00,15.73180776,0.0002415,53.2143,84.9211,31.9424,181.1639,0.00050827,0.00071266,0.0,0 STARLINK-3891,1 52650U 22052BE  22206.50001157  .00071266  00000-0  50827-3 0  9997,2 52650  53.2143  84.9211 0002415  31.9424 181.1639 15.73180776 11666,6727.95,91.534,351.44,348.19,0.0
52650.0,STARLINK-3891,PAYLOAD,2022-07-25 14:00:01,15.73187908,0.000241,53.2142,84.5085,33.2886,292.0490000000001,0.00053118,0.00074559,0.0,0 STARLINK-3891,1 52650U 22052BE  22206.58334491  .00074559  00000-0  53118-3 0  9999,2 52650  53.2142  84.5085 0002410  33.2886 292.0490 15.73187908  1303,6727.93,91.534,351.416,348.173,0.0
52650.0,STARLINK-3891,PAYLOAD,2022-07-25 22:00:00,15.73267527,0.0002572,53.214,82.8609,30.2731,24.0139,-0.00048113,-0.00067811,0.0,0 STARLINK-3891,1 52650U 22052BE  22206.91667824 -.00067811  00000-0 -48113-3 0  9999,2 52650  53.2140  82.8609 0002572  30.2731  24.0139 15.73267527  1308,6727.703,91.529,351.298,347.837,0.0
52650.0,STARLINK-3891,PAYLOAD,2022-07-26 04:00:01,15.73214407,0.0002558,53.2135,81.6239,27.3235,3.777,-8.633400000000001e-06,-1.835e-05,0.0,0 STARLINK-3891,1 52650U 22052BE  22207.16668981 -.00001835  00000-0 -86334-5 0  9995,2 52650  53.2135  81.6239 0002558  27.3235   3.7770 15.73214407 11763,6727.854,91.532,351.44,347.99800000000016,0.0
